IRIDIUM 126             
1 42809U 17039G   24253.58054073  .00000007  00000+0 -43954-5 0  9998
2 42809  86.3909 263.4056 0002013  87.4785 272.6641 14.34216700377419
IRIDIUM 124             
1 42810U 17039H   24253.58227696  .00002063  00000+0  60715-3 0  9998
2 42810  86.4545 200.1750 0002038  88.7807 271.3628 14.43284292381993
IRIDIUM 128             
1 42811U 17039J   24253.57127976  .00000067  00000+0  16748-4 0  9998
2 42811  86.3935 294.9601 0001939  93.3222 266.8196 14.34215906377444
IRIDIUM 121             
1 42812U 17039K   24253.52980037 -.00000030  00000+0 -17621-4 0  9992
2 42812  86.3908 263.4500 0002056  90.9077 269.2354 14.34216866377287
IRIDIUM 133             
1 42955U 17061A   24253.60299366  .00000012  00000+0 -27138-5 0  9996
2 42955  86.3936 295.0483 0002251  90.8861 269.2593 14.34216364362242
IRIDIUM 100             
1 42956U 17061B   24253.59665190  .00000271  00000+0  89753-4 0  9993
2 42956  86.3935 294.9849 0002052  94.1951 265.9479 14.34217550362246
IRIDIUM 122             
1 42957U 17061C   24253.56493868  .00000047  00000+0  96973-5 0  9996
2 42957  86.3935 294.9967 0001942  90.1608 269.9810 14.34217354362245
IRIDIUM 129             
1 42958U 17061D   24253.59030941  .00000208  00000+0  67157-4 0  9999
2 42958  86.3936 295.0461 0002244  85.7092 274.4360 14.34218036362262
